IRIDIUM 126             
1 42809U 17039G   25211.51577651  .00000000  00000+0 -70210-5 0  9996
2 42809  86.3999 128.1332 0002168  79.1583 280.9856 14.34213355423849
IRIDIUM 124             
1 42810U 17039H   25211.56529180  .00000324  00000+0  90187-4 0  9999
2 42810  86.4449  64.8231 0002095  91.8638 268.2803 14.43280741428723
IRIDIUM 128             
1 42811U 17039J   25211.36697604 -.00000026  00000+0 -16484-4 0  9994
2 42811  86.4024 159.6725 0001978  93.9874 266.1548 14.34217278423855
IRIDIUM 121             
1 42812U 17039K   25211.46503543  .00000280  00000+0  92764-4 0  9999
2 42812  86.3998 128.1800 0002225  87.7958 272.3493 14.34215983423714
IRIDIUM 133             
1 42955U 17061A   25211.39868855  .00000058  00000+0  13821-4 0  9994
2 42955  86.4023 159.7687 0002223  85.0554 275.0895 14.34216866408659
IRIDIUM 100             
1 42956U 17061B   25211.60165168  .00000035  00000+0  52593-5 0  9991
2 42956  86.4022 159.6105 0002026  84.4308 275.7118 14.34217693408681
IRIDIUM 122             
1 42957U 17061C   25211.56993890  .00000075  00000+0  19668-4 0  9997
2 42957  86.4022 159.6229 0002193  84.5286 275.6159 14.34217952408682
IRIDIUM 129             
1 42958U 17061D   25211.59531398  .00000290  00000+0  96518-4 0  9990
2 42958  86.4023 159.6758 0002630  79.0197 281.1294 14.34220331408707
